start=new Date('2023-04-14T00:00:00.000Z').valueOf();
sats=[{"OBJECT_NAME":"STARLINK-2494","LAUNCH_DATE":"2021-05-09","SITE":"AFETR","CLASSIFICATION_TYPE":"U","EPOCH":"2023-04-13T14:46:31.891296","NORAD_CAT_ID":"48487","REF_FRAME":"TEME","ECCENTRICITY":"0.00009660","APOAPSIS":"547.856","TIME_SYSTEM":"UTC","MEAN_ANOMALY":"299.1466","SEMIMAJOR_AXIS":"6925.322","GP_ID":"230024279","REV_AT_EPOCH":"10770","DECAY_DATE":null,"TLE_LINE2":"2 48487  53.0541 284.9655 0000966  60.9620 299.1466 15.06408607107703","OBJECT_ID":"2021-040BM","MEAN_MOTION_DDOT":"0.0000000000000","ARG_OF_PERICENTER":"60.9620","EPHEMERIS_TYPE":"0","PERIAPSIS":"546.518","RCS_SIZE":"LARGE","TLE_LINE1":"1 48487U 21040BM  23103.61564689  .00018170  00000-0  12353-2 0  9995","MEAN_MOTION":"15.06408607","RA_OF_ASC_NODE":"284.9655","ELEMENT_SET_NO":"999","COUNTRY_CODE":"US","CENTER_NAME":"EARTH","MEAN_ELEMENT_THEORY":"SGP4","BSTAR":"0.00123530000000","INCLINATION":"53.0541","MEAN_MOTION_DOT":"0.00018170","PERIOD":"95.592","FILE":"3886867","OBJECT_TYPE":"PAYLOAD"},{"EPHEMERIS_TYPE":"0","ARG_OF_PERICENTER":"101.3349","MEAN_MOTION_DDOT":"0.0000000000000","PERIAPSIS":"546.424","TLE_LINE1":"1 48553U 21041A   23103.32722997  .00028367  00000-0  19148-2 0  9994","MEAN_MOTION":"15.06415711","RCS_SIZE":"LARGE","MEAN_ELEMENT_THEORY":"SGP4","BSTAR":"0.00191480000000","COUNTRY_CODE":"US","CENTER_NAME":"EARTH","RA_OF_ASC_NODE":"216.2607","ELEMENT_SET_NO":"999","FILE":"3886564","OBJECT_TYPE":"PAYLOAD","PERIOD":"95.591","INCLINATION":"53.0546","MEAN_MOTION_DOT":"0.00028367","OBJECT_NAME":"STARLINK-2063","NORAD_CAT_ID":"48553","EPOCH":"2023-04-13T07:51:12.669408","CLASSIFICATION_TYPE":"U","SITE":"AFETR","LAUNCH_DATE":"2021-05-15","APOAPSIS":"547.907","ECCENTRICITY":"0.00010710","REF_FRAME":"TEME","TLE_LINE2":"2 48553  53.0546 216.2607 0001071 101.3349 258.7760 15.06415711105231","OBJECT_ID":"2021-041A","DECAY_DATE":null,"SEMIMAJOR_AXIS":"6925.300","GP_ID":"230012772","REV_AT_EPOCH":"10523","TIME_SYSTEM":"UTC","MEAN_ANOMALY":"258.7760"},{"OBJECT_NAME":"STARLINK-2139","CLASSIFICATION_TYPE":"U","SITE":"AFETR","LAUNCH_DATE":"2021-05-15","NORAD_CAT_ID":"48554","EPOCH":"2023-04-13T08:01:48.878400","ECCENTRICITY":"0.00012380","REF_FRAME":"TEME","APOAPSIS":"548.014","SEMIMAJOR_AXIS":"6925.292","GP_ID":"230011522","REV_AT_EPOCH":"10523","TIME_SYSTEM":"UTC","MEAN_ANOMALY":"281.7008","TLE_LINE2":"2 48554  53.0525 216.2261 0001238  78.4120 281.7008 15.06418427105239","OBJECT_ID":"2021-041B","DECAY_DATE":null,"ARG_OF_PERICENTER":"78.4120","EPHEMERIS_TYPE":"0","MEAN_MOTION_DDOT":"0.0000000000000","PERIAPSIS":"546.300","RCS_SIZE":"LARGE","TLE_LINE1":"1 48554U 21041B   23103.33459350  .00028575  00000-0  19285-2 0  9999","MEAN_MOTION":"15.06418427","COUNTRY_CODE":"US","CENTER_NAME":"EARTH","RA_OF_ASC_NODE":"216.2261","ELEMENT_SET_NO":"999","MEAN_ELEMENT_THEORY":"SGP4","BSTAR":"0.00192850000000","PERIOD":"95.591","INCLINATION":"53.0525","MEAN_MOTION_DOT":"0.00028575","FILE":"3886564","OBJECT_TYPE":"PAYLOAD"},{"TIME_SYSTEM":"UTC","MEAN_ANOMALY":"298.0697","SEMIMAJOR_AXIS":"6925.256","GP_ID":"230023320","REV_AT_EPOCH":"10558","DECAY_DATE":null,"TLE_LINE2":"2 48555  53.0529 224.9078 0001025  62.0396 298.0697 15.06430166105581","OBJECT_ID":"2021-041C","REF_FRAME":"TEME","ECCENTRICITY":"0.00010250","APOAPSIS":"547.831","SITE":"AFETR","LAUNCH_DATE":"2021-05-15","CLASSIFICATION_TYPE":"U","EPOCH":"2023-04-13T15:05:06.377856","NORAD_CAT_ID":"48555","OBJECT_NAME":"STARLINK-2145","INCLINATION":"53.0529","MEAN_MOTION_DOT":"0.00034984","PERIOD":"95.590","FILE":"3886793","OBJECT_TYPE":"PAYLOAD","RA_OF_ASC_NODE":"224.9078","ELEMENT_SET_NO":"999","COUNTRY_CODE":"US","CENTER_NAME":"EARTH","MEAN_ELEMENT_THEORY":"SGP4","BSTAR":"0.00235400000000","PERIAPSIS":"546.411","TLE_LINE1":"1 48555U 21041C   23103.62854604  .00034984  00000-0  23540-2 0  9993","MEAN_MOTION":"15.06430166","RCS_SIZE":"LARGE","MEAN_MOTION_DDOT":"0.0000000000000","EPHEMERIS_TYPE":"0","ARG_OF_PERICENTER":"62.0396"},{"OBJECT_NAME":"STARLINK-2151","NORAD_CAT_ID":"48556","EPOCH":"2023-04-13T14:49:09.889248","CLASSIFICATION_TYPE":"U","SITE":"AFETR","LAUNCH_DATE":"2021-05-15","APOAPSIS":"548.134","ECCENTRICITY":"0.00015280","REF_FRAME":"TEME","TLE_LINE2":"2 48556  53.0518 224.9567 0001528  48.7232 311.3888 15.06444811105584","OBJECT_ID":"2021-041D","DECAY_DATE":null,"REV_AT_EPOCH":"10558","GP_ID":"230022816","SEMIMAJOR_AXIS":"6925.211","MEAN_ANOMALY":"311.3888","TIME_SYSTEM":"UTC","ARG_OF_PERICENTER":"48.7232","EPHEMERIS_TYPE":"0","MEAN_MOTION_DDOT":"0.0000000000000","TLE_LINE1":"1 48556U 21041D   23103.61747557  .00034703  00000-0  23344-2 0  9992","MEAN_MOTION":"15.06444811","RCS_SIZE":"LARGE","PERIAPSIS":"546.018","BSTAR":"0.00233440000000","MEAN_ELEMENT_THEORY":"SGP4","CENTER_NAME":"EARTH","COUNTRY_CODE":"US","ELEMENT_SET_NO":"999","RA_OF_ASC_NODE":"224.9567","OBJECT_TYPE":"PAYLOAD","FILE":"3886793","PERIOD":"95.589","MEAN_MOTION_DOT":"0.00034703","INCLINATION":"53.0518"},{"MEAN_ELEMENT_THEORY":"SGP4","BSTAR":"0.00214900000000","RA_OF_ASC_NODE":"214.6362","ELEMENT_SET_NO":"999","COUNTRY_CODE":"US","CENTER_NAME":"EARTH","FILE":"3886799","OBJECT_TYPE":"PAYLOAD","INCLINATION":"53.0520","MEAN_MOTION_DOT":"0.00031898","PERIOD":"95.590","MEAN_MOTION_DDOT":"0.0000000000000","ARG_OF_PERICENTER":"78.8774","EPHEMERIS_TYPE":"0","PERIAPSIS":"546.248","RCS_SIZE":"LARGE","TLE_LINE1":"1 48557U 21041E   23103.68844706  .00031898  00000-0  21490-2 0  9996","MEAN_MOTION":"15.06428726","APOAPSIS":"548.003","REF_FRAME":"TEME","ECCENTRICITY":"0.00012670","DECAY_DATE":null,"OBJECT_ID":"2021-041E","TLE_LINE2":"2 48557  53.0520 214.6362 0001267  78.8774 281.2357 15.06428726105732","TIME_SYSTEM":"UTC","MEAN_ANOMALY":"281.2357","SEMIMAJOR_AXIS":"6925.261","REV_AT_EPOCH":"10573","GP_ID":"230022922","OBJECT_NAME":"STARLINK-2155","EPOCH":"2023-04-13T16:31:21.825984","NORAD_CAT_ID":"48557","SITE":"AFETR","LAUNCH_DATE":"2021-05-15","CLASSIFICATION_TYPE":"U"},{"DECAY_DATE":null,"TLE_LINE2":"2 48558  53.0521 214.6548 0001209 102.3514 257.7611 15.06438340105689","OBJECT_ID":"2021-041F","TIME_SYSTEM":"UTC","MEAN_ANOMALY":"257.7611","SEMIMAJOR_AXIS":"6925.231","REV_AT_EPOCH":"10568","GP_ID":"230023529","APOAPSIS":"547.933","REF_FRAME":"TEME","ECCENTRICITY":"0.00012090","EPOCH":"2023-04-13T16:26:02.838048","NORAD_CAT_ID":"48558","SITE":"AFETR","LAUNCH_DATE":"2021-05-15","CLASSIFICATION_TYPE":"U","OBJECT_NAME":"STARLINK-2166","FILE":"3886816","OBJECT_TYPE":"PAYLOAD","INCLINATION":"53.0521","MEAN_MOTION_DOT":"0.00033061","PERIOD":"95.590","MEAN_ELEMENT_THEORY":"SGP4","BSTAR":"0.00222570000000","RA_OF_ASC_NODE":"214.6548","ELEMENT_SET_NO":"999","COUNTRY_CODE":"US","CENTER_NAME":"EARTH","PERIAPSIS":"546.259","MEAN_MOTION":"15.06438340","TLE_LINE1":"1 48558U 21041F   23103.68475507  .00033061  00000-0  22257-2 0  9992","RCS_SIZE":"LARGE","MEAN_MOTION_DDOT":"0.0000000000000","ARG_OF_PERICENTER":"102.3514","EPHEMERIS_TYPE":"0"},{"NORAD_CAT_ID":"48559","EPOCH":"2023-04-13T17:17:46.510944","CLASSIFICATION_TYPE":"U","LAUNCH_DATE":"2021-05-15","SITE":"AFETR","OBJECT_NAME":"STARLINK-2167","TLE_LINE2":"2 48559  53.0523 214.4960 0001120  51.1281 308.9807 15.06442588105733","OBJECT_ID":"2021-041G","DECAY_DATE":null,"GP_ID":"230023527","REV_AT_EPOCH":"10573","SEMIMAJOR_AXIS":"6925.218","MEAN_ANOMALY":"308.9807","TIME_SYSTEM":"UTC","APOAPSIS":"547.859","ECCENTRICITY":"0.00011200","REF_FRAME":"TEME","TLE_LINE1":"1 48559U 21041G   23103.72067721  .00031612  00000-0  21292-2 0  9991","MEAN_MOTION":"15.06442588","RCS_SIZE":"LARGE","PERIAPSIS":"546.307","EPHEMERIS_TYPE":"0","ARG_OF_PERICENTER":"51.1281","MEAN_MOTION_DDOT":"0.0000000000000","OBJECT_TYPE":"PAYLOAD","FILE":"3886816","PERIOD":"95.589","MEAN_MOTION_DOT":"0.00031612","INCLINATION":"53.0523","BSTAR":"0.00212920000000","MEAN_ELEMENT_THEORY":"SGP4","CENTER_NAME":"EARTH","COUNTRY_CODE":"US","ELEMENT_SET_NO":"999","RA_OF_ASC_NODE":"214.4960"},{"OBJECT_NAME":"STARLINK-2186","NORAD_CAT_ID":"48561","EPOCH":"2023-04-13T17:39:04.876704","CLASSIFICATION_TYPE":"U","LAUNCH_DATE":"2021-05-15","SITE":"AFETR","APOAPSIS":"547.882","ECCENTRICITY":"0.00011960","REF_FRAME":"TEME","OBJECT_ID":"2021-041J","TLE_LINE2":"2 48561  53.0524 184.7074 0001196  92.3093 267.8033 15.06452287106117","DECAY_DATE":null,"SEMIMAJOR_AXIS":"6925.188","REV_AT_EPOCH":"10611","GP_ID":"230023609","TIME_SYSTEM":"UTC","MEAN_ANOMALY":"267.8033","ARG_OF_PERICENTER":"92.3093","EPHEMERIS_TYPE":"0","MEAN_MOTION_DDOT":"0.0000000000000","PERIAPSIS":"546.225","MEAN_MOTION":"15.06452287","TLE_LINE1":"1 48561U 21041J   23103.73547311  .00029672  00000-0  19997-2 0  9995","RCS_SIZE":"LARGE","MEAN_ELEMENT_THEORY":"SGP4","BSTAR":"0.00199970000000","COUNTRY_CODE":"US","CENTER_NAME":"EARTH","RA_OF_ASC_NODE":"184.7074","ELEMENT_SET_NO":"999","FILE":"3886811","OBJECT_TYPE":"PAYLOAD","PERIOD":"95.589","INCLINATION":"53.0524","MEAN_MOTION_DOT":"0.00029672"},{"OBJECT_NAME":"STARLINK-2187","LAUNCH_DATE":"2021-05-15","SITE":"AFETR","CLASSIFICATION_TYPE":"U","EPOCH":"2023-04-13T19:05:16.736640","NORAD_CAT_ID":"48562","REF_FRAME":"TEME","ECCENTRICITY":"0.00014960","APOAPSIS":"548.144","TIME_SYSTEM":"UTC","MEAN_ANOMALY":"299.2696","SEMIMAJOR_AXIS":"6925.243","REV_AT_EPOCH":"10570","GP_ID":"230023140","DECAY_DATE":null,"TLE_LINE2":"2 48562  53.0533 214.1587 0001496  60.8442 299.2696 15.06434419105701","OBJECT_ID":"2021-041K","MEAN_MOTION_DDOT":"0.0000000000000","ARG_OF_PERICENTER":"60.8442","EPHEMERIS_TYPE":"0","PERIAPSIS":"546.072","TLE_LINE1":"1 48562U 21041K   23103.79533260  .00031516  00000-0  21233-2 0  9996","MEAN_MOTION":"15.06434419","RCS_SIZE":"LARGE","RA_OF_ASC_NODE":"214.1587","ELEMENT_SET_NO":"999","COUNTRY_CODE":"US","CENTER_NAME":"EARTH","MEAN_ELEMENT_THEORY":"SGP4","BSTAR":"0.00212330000000","INCLINATION":"53.0533","MEAN_MOTION_DOT":"0.00031516","PERIOD":"95.590","FILE":"3886818","OBJECT_TYPE":"PAYLOAD"}];
